CSS (TIANHE)            
1 48274U 21035A   23208.82480051  .00018466  00000+0  22162-3 0  9999
2 48274  41.4743 268.9899 0007794  11.5315 348.5701 15.60429667128188
